CTC1_L_00586007-03
1 36454U 25016JT  26070.40840278  .00000000  00000+0  00000-0 0  9993
2 36454  65.0000 180.0000 0000000   0.0000 144.0000  6.70625815    14
CTC1_L_00586007-04
1 36455U 22466ON  26070.40840278  .00000000  00000+0  00000-0 0  9990
2 36455  65.0000 180.0000 0000000   0.0000 180.0000  6.70625815    15
CTC1_L_00586007-05
1 36456U 23213UL  26070.40840278  .00000000  00000+0  00000-0 0  9992
2 36456  65.0000 180.0000 0000000   0.0000 216.0000  6.70625815    16
CTC1_L_00586007-06
1 36457U 26217M   26070.40840278  .00000000  00000+0  00000-0 0  9990
2 36457  65.0000 180.0000 0000000   0.0000 252.0000  6.70625815    17
CTC1_L_00586007-07
1 36458U 24068RK  26070.40840278  .00000000  00000+0  00000-0 0  9993
2 36458  65.0000 180.0000 0000000   0.0000 288.0000  6.70625815    17
CTC1_L_00586007-08
1 36459U 23920QU  26070.40840278  .00000000  00000+0  00000-0 0  9990
2 36459  65.0000 180.0000 0000000   0.0000 324.0000  6.70625815    19
CTC1_L_00586007-09
1 36460U 26746SS  26070.40840278  .00000000  00000+0  00000-0 0  9991
2 36460  65.0000 180.0000 0000000   0.0000   0.0000  6.70625815    12
CTC1_L_00586007-10
1 36461U 22659PT  26070.40840278  .00000000  00000+0  00000-0 0  9991
2 36461  65.0000 180.0000 0000000   0.0000  36.0000  6.70625815    12
CTC1_L_00586008-01
1 36462U 23832SX  26070.40840278  .00000000  00000+0  00000-0 0  9996
2 36462  65.0000 210.0000 0000000   0.0000  84.0000  6.70625815    10
CTC1_L_00586008-02
1 36463U 24266NJ  26070.40840278  .00000000  00000+0  00000-0 0  9999
2 36463  65.0000 210.0000 0000000   0.0000 120.0000  6.70625815    12
CTC1_L_00586008-03
1 36464U 25174VR  26070.40840278  .00000000  00000+0  00000-0 0  9999
2 36464  65.0000 210.0000 0000000   0.0000 156.0000  6.70625815    12
CTC1_L_00586008-04
1 36465U 22265SS  26070.40840278  .00000000  00000+0  00000-0 0  9998
2 36465  65.0000 210.0000 0000000   0.0000 192.0000  6.70625815    13
CTC1_L_00586008-05
1 36466U 22114NS  26070.40840278  .00000000  00000+0  00000-0 0  9992
2 36466  65.0000 210.0000 0000000   0.0000 228.0000  6.70625815    14
CTC1_L_00586008-06
1 36467U 25211BO  26070.40840278  .00000000  00000+0  00000-0 0  9994
2 36467  65.0000 210.0000 0000000   0.0000 264.0000  6.70625815    15
CTC1_L_00586008-07
1 36468U 26640TE  26070.40840278  .00000000  00000+0  00000-0 0  9992
2 36468  65.0000 210.0000 0000000   0.0000 300.0000  6.70625815    17
CTC1_L_00586008-08
1 36469U 23539ZM  26070.40840278  .00000000  00000+0  00000-0 0  9997
2 36469  65.0000 210.0000 0000000   0.0000 336.0000  6.70625815    17
CTC1_L_00586008-09
1 36470U 22187ET  26070.40840278  .00000000  00000+0  00000-0 0  9997
2 36470  65.0000 210.0000 0000000   0.0000  12.0000  6.70625815    10
CTC1_L_00586008-10
1 36471U 23473OP  26070.40840278  .00000000  00000+0  00000-0 0  9997
2 36471  65.0000 210.0000 0000000   0.0000  48.0000  6.70625815    10
CTC1_L_00586009-01
1 36472U 22535PU  26070.40840278  .00000000  00000+0  00000-0 0  9996
2 36472  65.0000 240.0000 0000000   0.0000  96.0000  6.70625815    17
CTC1_L_00586009-02
1 36473U 24764GK  26070.40840278  .00000000  00000+0  00000-0 0  9993
2 36473  65.0000 240.0000 0000000   0.0000 132.0000  6.70625815    19
CTC1_L_00586009-03
1 36474U 24747WA  26070.40840278  .00000000  00000+0  00000-0 0  9995
2 36474  65.0000 240.0000 0000000   0.0000 168.0000  6.70625815    19
CTC1_L_00586009-04
1 36475U 26018GM  26070.40840278  .00000000  00000+0  00000-0 0  9999
2 36475  65.0000 240.0000 0000000   0.0000 204.0000  6.70625815    11
CTC1_L_00586009-05
1 36476U 24334WF  26070.40840278  .00000000  00000+0  00000-0 0  9999
2 36476  65.0000 240.0000 0000000   0.0000 240.0000  6.70625815    12
CTC1_L_00586009-06
1 36477U 23154AK  26070.40840278  .00000000  00000+0  00000-0 0  9999
2 36477  65.0000 240.0000 0000000   0.0000 276.0000  6.70625815    12
CTC1_L_00586009-07
1 36478U 22424KR  26070.40840278  .00000000  00000+0  00000-0 0  9999
2 36478  65.0000 240.0000 0000000   0.0000 312.0000  6.70625815    14
CTC1_L_00586009-08
1 36479U 24274RO  26070.40840278  .00000000  00000+0  00000-0 0  9995
2 36479  65.0000 240.0000 0000000   0.0000 348.0000  6.70625815    14
CTC1_L_00586009-09
1 36480U 22320VF  26070.40840278  .00000000  00000+0  00000-0 0  9997
2 36480  65.0000 240.0000 0000000   0.0000  24.0000  6.70625815    17
CTC1_L_00586009-10
1 36481U 25796KO  26070.40840278  .00000000  00000+0  00000-0 0  9998
2 36481  65.0000 240.0000 0000000   0.0000  60.0000  6.70625815    18
CTC1_L_00586010-01
1 36482U 24689JL  26070.40840278  .00000000  00000+0  00000-0 0  9999
2 36482  65.0000 270.0000 0000000   0.0000 108.0000  6.70625815    15
CTC1_L_00586010-02
1 36483U 25514RD  26070.40840278  .00000000  00000+0  00000-0 0  9998
2 36483  65.0000 270.0000 0000000   0.0000 144.0000  6.70625815    16
CTC1_L_00586010-03
1 36484U 25205IU  26070.40840278  .00000000  00000+0  00000-0 0  9996
2 36484  65.0000 270.0000 0000000   0.0000 180.0000  6.70625815    17
CTC1_L_00586010-04
1 36485U 25820CX  26070.40840278  .00000000  00000+0  00000-0 0  9990
2 36485  65.0000 270.0000 0000000   0.0000 216.0000  6.70625815    18
CTC1_L_00586010-05
1 36486U 23938DS  26070.40840278  .00000000  00000+0  00000-0 0  9999
2 36486  65.0000 270.0000 0000000   0.0000 252.0000  6.70625815    19
CTC1_L_00586010-06
1 36487U 22821DR  26070.40840278  .00000000  00000+0  00000-0 0  9990
2 36487  65.0000 270.0000 0000000   0.0000 288.0000  6.70625815    19
CTC1_L_00586010-07
1 36488U 23438MW  26070.40840278  .00000000  00000+0  00000-0 0  9996
2 36488  65.0000 270.0000 0000000   0.0000 324.0000  6.70625815    11
CTC1_L_00586010-08
1 36489U 22155TC  26070.40840278  .00000000  00000+0  00000-0 0  9992
2 36489  65.0000 270.0000 0000000   0.0000   0.0000  6.70625815    13
CTC1_L_00586010-09
1 36490U 24081ZV  26070.40840278  .00000000  00000+0  00000-0 0  9994
2 36490  65.0000 270.0000 0000000   0.0000  36.0000  6.70625815    14
CTC1_L_00586010-10
1 36491U 22691EB  26070.40840278  .00000000  00000+0  00000-0 0  9990
2 36491  65.0000 270.0000 0000000   0.0000  72.0000  6.70625815    15
CTC1_L_00586011-01
1 36492U 22385XD  26070.40840278  .00000000  00000+0  00000-0 0  9991
2 36492  65.0000 300.0000 0000000   0.0000 120.0000  6.70625815    14
CTC1_L_00586011-02
1 36493U 24897BC  26070.40840278  .00000000  00000+0  00000-0 0  9992
2 36493  65.0000 300.0000 0000000   0.0000 156.0000  6.70625815    14
CTC1_L_00586011-03
1 36494U 23957RF  26070.40840278  .00000000  00000+0  00000-0 0  9999
2 36494  65.0000 300.0000 0000000   0.0000 192.0000  6.70625815    15
CTC1_L_00586011-04
1 36495U 25726KI  26070.40840278  .00000000  00000+0  00000-0 0  9996
2 36495  65.0000 300.0000 0000000   0.0000 228.0000  6.70625815    16
CTC1_L_00586011-05
1 36496U 24766WM  26070.40840278  .00000000  00000+0  00000-0 0  9990
2 36496  65.0000 300.0000 0000000   0.0000 264.0000  6.70625815    17
CTC1_L_00586011-06
1 36497U 26657EV  26070.40840278  .00000000  00000+0  00000-0 0  9992
2 36497  65.0000 300.0000 0000000   0.0000 300.0000  6.70625815    19
CTC1_L_00586011-07
1 36498U 22512FI  26070.40840278  .00000000  00000+0  00000-0 0  9999
2 36498  65.0000 300.0000 0000000   0.0000 336.0000  6.70625815    19
CTC1_L_00586011-08
1 36499U 26633JG  26070.40840278  .00000000  00000+0  00000-0 0  9998
2 36499  65.0000 300.0000 0000000   0.0000  12.0000  6.70625815    11
CTC1_L_00586011-09
1 36500U 22969ZD  26070.40840278  .00000000  00000+0  00000-0 0  9999
2 36500  65.0000 300.0000 0000000   0.0000  48.0000  6.70625815    13
CTC1_L_00586011-10
1 36501U 23992ER  26070.40840278  .00000000  00000+0  00000-0 0  9997
2 36501  65.0000 300.0000 0000000   0.0000  84.0000  6.70625815    14
CTC1_L_00586012-01
1 36502U 23113EG  26070.40840278  .00000000  00000+0  00000-0 0  9993
2 36502  65.0000 330.0000 0000000   0.0000 132.0000  6.70625815    12
CTC1_L_00586012-02
1 36503U 22359BF  26070.40840278  .00000000  00000+0  00000-0 0  9995
2 36503  65.0000 330.0000 0000000   0.0000 168.0000  6.70625815    12
CTC1_L_00586012-03
1 36504U 26251JV  26070.40840278  .00000000  00000+0  00000-0 0  9991
2 36504  65.0000 330.0000 0000000   0.0000 204.0000  6.70625815    14
CTC1_L_00586012-04
1 36505U 26760IE  26070.40840278  .00000000  00000+0  00000-0 0  9997
2 36505  65.0000 330.0000 0000000   0.0000 240.0000  6.70625815    15
CTC1_L_00586012-05
1 36506U 24339QT  26070.40840278  .00000000  00000+0  00000-0 0  9998
2 36506  65.0000 330.0000 0000000   0.0000 276.0000  6.70625815    15
CTC1_L_00586012-06
1 36507U 24957R   26070.40840278  .00000000  00000+0  00000-0 0  9995
2 36507  65.0000 330.0000 0000000   0.0000 312.0000  6.70625815    17
CTC1_L_00586012-07
1 36508U 22436NY  26070.40840278  .00000000  00000+0  00000-0 0  9996
2 36508  65.0000 330.0000 0000000   0.0000 348.0000  6.70625815    17
CTC1_L_00586012-08
1 36509U 23357OV  26070.40840278  .00000000  00000+0  00000-0 0  9990
2 36509  65.0000 330.0000 0000000   0.0000  24.0000  6.70625815    19
CTC1_L_00586012-09
1 36510U 23367ID  26070.40840278  .00000000  00000+0  00000-0 0  9993
2 36510  65.0000 330.0000 0000000   0.0000  60.0000  6.70625815    11
CTC1_L_00586012-10
1 36511U 23610YU  26070.40840278  .00000000  00000+0  00000-0 0  9995
2 36511  65.0000 330.0000 0000000   0.0000  96.0000  6.70625815    11
